[{"OBJECT_NAME":"STARLINK-5040","OBJECT_ID":"2022-119AE","EPOCH":"2026-03-09T22:35:42.265824","MEAN_MOTION":15.08840121,"ECCENTRICITY":0.00013015,"INCLINATION":53.2178,"RA_OF_ASC_NODE":312.942,"ARG_OF_PERICENTER":89.8058,"MEAN_ANOMALY":270.3083,"EPHEMERIS_TYPE":0,"CLASSIFICATION_TYPE":"U","NORAD_CAT_ID":53914,"ELEMENT_SET_NO":999,"REV_AT_EPOCH":19186,"BSTAR":-2.2912224e-5,"MEAN_MOTION_DOT":-6.53e-6,"MEAN_MOTION_DDOT":0},{"OBJECT_NAME":"ELECTRON KICK STAGE R\/B","OBJECT_ID":"2023-035A","EPOCH":"2026-03-09T00:22:03.988416","MEAN_MOTION":15.09409521,"ECCENTRICITY":0.00017263,"INCLINATION":44.1756,"RA_OF_ASC_NODE":311.3301,"ARG_OF_PERICENTER":9.8979,"MEAN_ANOMALY":350.1918,"EPHEMERIS_TYPE":0,"CLASSIFICATION_TYPE":"U","NORAD_CAT_ID":55908,"ELEMENT_SET_NO":999,"REV_AT_EPOCH":16322,"BSTAR":0.00066616987,"MEAN_MOTION_DOT":0.00010608,"MEAN_MOTION_DDOT":0}]
